AEROCUBE 8C             
1 41853U 16067F   24198.43147038  .00010039  00000+0  65205-3 0  9998
2 41853  98.0899   7.7788 0006880 303.8834  56.1738 15.08236165419791
PROMETHEUS 2-1          
1 41854U 16067G   24198.43772697  .00022111  00000+0  10853-2 0  9996
2 41854  98.1006  15.6318 0011435 318.8227  41.2141 15.18053879420171
PROMETHEUS 2-3          
1 41855U 16067H   24198.43464554  .00021861  00000+0  10747-2 0  9990
2 41855  98.0940  15.0884 0009720 329.8839  30.1833 15.18017671420170
AALTO-1                 
1 42775U 17036L   24198.56762445  .00186280  00000+0  11892-2 0  9992
2 42775  97.0989 228.7241 0006250 119.4406 240.7484 15.75812506393726
CORVUS BC2              
1 42846U 17042X   24198.51624635  .00005291  00000+0  45274-3 0  9995
2 42846  97.3738  21.9891 0006978 327.1670  32.9119 14.97975638381836
CORVUS BC1              
1 42847U 17042Y   24198.47428639  .00005455  00000+0  46453-3 0  9999
2 42847  97.3754  22.3564 0006820 331.8212  28.2641 14.98146326381841
MIRATA                  
1 43015U 17073C   24198.59496509  .00027550  00000+0  12547-2 0  9991
2 43015  97.5922  83.0190 0166980 159.7591 201.0364 15.08981787360769
MAKERSAT 0              
1 43016U 17073D   24198.60247310  .00015225  00000+0  84902-3 0  9999
2 43016  97.5741  76.7779 0193999 182.6305 177.3917 14.98977748360319
GOMX-4B                 
1 43196U 18015E   24198.43668847  .00091728  00000+0  82301-3 0  9991
2 43196  97.6054  14.3870 0007697 200.8234 159.2714 15.67967263360108
GOMX-4A                 
1 43197U 18015F   24198.84879867  .00252133  00000+0  10150-2 0  9994
2 43197  97.5930  20.6205 0006673 198.9288 161.1735 15.85742761360561
CICERO 10               
1 43690U 18088A   24198.31083656  .01598698  20824-2  13758-2 0  9993
2 43690  84.9921 157.6642 0012552 172.6290 187.5189 16.13764235316850
SIRION PATHFINDER-2     
1 43759U 18099B   24198.58738947  .00007137  00000+0  53223-3 0  9995
2 43759  97.5247 253.9081 0011161 182.0273 178.0909 15.03119347306923
CORVUS BC4              
1 43767U 18099K   24198.56787652  .00007977  00000+0  60571-3 0  9995
2 43767  97.5093 251.0099 0010091 243.6709 116.3480 15.02409723306803
MOVE-II                 
1 43780U 18099Y   24198.12509312  .00024027  00000+0  12128-2 0  9996
2 43780  97.5200 260.8668 0006048 224.1056 135.9696 15.17087400307317
SPACEBEE-7              
1 43816U 18099BL  24198.12317421  .00017045  00000+0  97994-3 0  9991
2 43816  97.5473 261.4856 0010315 181.1113 179.0097 15.12505184306786
SPACEBEE-6              
1 43818U 18099BN  24198.62251169  .00049122  00000+0  19266-2 0  9990
2 43818  97.5394 267.8532 0009279 179.2362 180.8891 15.25543168307390
SHIELDS 1               
1 43850U 18104B   24198.59188340  .00017451  00000+0  45431-3 0  9993
2 43850  85.0223 263.1373 0008621 329.9014  30.1740 15.38722153310682
SONATE                  
1 44400U 19038Q   24198.47601865  .00028438  00000+0  82098-3 0  9998
2 44400  97.7122 193.9066 0015037  11.7368 348.4222 15.35529962278579
LUCKY-7                 
1 44406U 19038W   24198.50158353  .00053951  00000+0  10685-2 0  9997
2 44406  97.7008 198.4867 0010203 356.7394   3.3786 15.46841416278898
DUCHIFAT-3              
1 44854U 19089C   24198.48179183  .00019446  00000+0  95262-3 0  9997
2 44854  36.9558 231.0171 0005353 322.2236  37.8135 15.17436381252728
M2 PATHFINDER           
1 45727U 20037E   24198.45705988  .00004393  00000+0  38226-3 0  9999
2 45727  97.7791  14.7421 0012091  33.4056 326.7926 14.97410870220325
NETSAT-4                
1 46504U 20068U   24198.84754975  .00013631  00000+0  71425-3 0  9993
2 46504  97.8059 156.8062 0007766 256.9866 103.0499 15.15894557208663
NETSAT-3                
1 46505U 20068V   24198.44731925  .00012038  00000+0  64240-3 0  9997
2 46505  97.8035 155.8645 0007018 268.9988  91.0439 15.15282641208599
NETSAT-1                
1 46506U 20068W   24198.46451609  .00009452  00000+0  53129-3 0  9998
2 46506  97.8061 155.2854 0005856 284.4248  75.6332 15.13505459208554
NETSAT-2                
1 46507U 20068X   24198.40423891  .00013787  00000+0  72405-3 0  9999
2 46507  97.8047 155.9717 0004978 291.4789  68.5911 15.15827314208548
WILDTRACKCUBE-SIMBA     
1 47941U 21022K   24198.76023962  .00018940  00000+0  81970-3 0  9990
2 47941  97.4575  95.2767 0016596  47.7847 312.4794 15.22348266182969
SMOG-1                  
1 47964U 21022AJ  24198.24088136  .00711726  19824-3  26150-2 0  9990
2 47964  97.4491 111.9054 0007000 142.6856 217.4903 15.88249647182816
BCCSAT-1                
1 48041U 21022AK  24198.27115852  .00135093  00000+0  20038-2 0  9994
2 48041  97.4576 106.5075 0004768  43.0221 317.1405 15.54742906182441
BEESAT-7                
1 48084U 21022AN  24198.23602842  .00449806  00000+0  27319-2 0  9996
2 48084  97.4509 108.3080 0006174 113.9671 246.2241 15.76241243182317
BEESAT-8                
1 48085U 21022AP  24198.71348653  .00039113  00000+0  11659-2 0  9993
2 48085  97.4746 101.1323 0012391  33.9453 326.2580 15.34487220182405
LEDSAT                  
1 49069U 21073D   24198.77248789  .00022113  00000+0  85931-3 0  9994
2 49069  97.4366 269.7245 0019443 175.8157 184.3247 15.25893045160968
SITRO-AIS 5 (KATYS)     
1 57176U 23091L   24198.86990491  .00011761  00000+0  74376-3 0  9996
2 57176  97.6116 250.8048 0017743  26.5516 333.6617 15.09042407 57971
SITRO-AIS 6 (CHIRKIN)   
1 57192U 23091AC  24198.58867222  .00010783  00000+0  68152-3 0  9996
2 57192  97.6108 250.5525 0017497  26.9052 333.3080 15.09091958 57934
SITRO-AIS 8 (ANOKHIN)   
1 57193U 23091AD  24198.61634136  .00012282  00000+0  76802-3 0  9994
2 57193  97.6111 250.6608 0017267  27.7381 332.4765 15.09450061 57946
SITRO-AIS 7 (FARTUSHNIY)
1 57194U 23091AE  24198.59457127  .00011065  00000+0  70004-3 0  9991
2 57194  97.6110 250.5379 0017445  27.7494 332.4662 15.09047408 57935
SITRO-AIS 10 (BURDAEV)  
1 57199U 23091AK  24198.88213095  .00013606  00000+0  80933-3 0  9997
2 57199  97.6128 251.9151 0012055  17.1799 342.9837 15.11310243 58041
SITRO-AIS 9 (SHCHUKIN)  
1 57201U 23091AM  24198.61593308  .00013101  00000+0  78006-3 0  9998
2 57201  97.6122 251.6285 0012023  18.0238 342.1416 15.11284709 58005
SITRO-AIS 12 (SMIRENNIY)
1 57204U 23091AQ  24198.57470198  .00013737  00000+0  81347-3 0  9994
2 57204  97.6125 251.7302 0011736  11.4615 348.6879 15.11473610 58003
SITRO-AIS 11 (SHEFFER)  
1 57208U 23091AU  24198.55874963  .00013835  00000+0  81728-3 0  9996
2 57208  97.6127 251.7397 0011608  12.2411 347.9099 15.11562238 58005
SITRO-AIS 29            
1 59052U 24039B   24198.88107503  .00033244  00000+0  11640-2 0  9994
2 59052  97.3920 160.6696 0020195 109.9832 250.3586 15.29227581 21134
SITRO-AIS 30            
1 59053U 24039C   24198.88173194  .00030299  00000+0  10638-2 0  9997
2 59053  97.3917 160.6647 0020278 110.6680 249.6737 15.29156893 21124
SITRO-AIS 31            
1 59054U 24039D   24198.87245628  .00032879  00000+0  11486-2 0  9997
2 59054  97.3918 160.6774 0020176 110.5906 249.7501 15.29304583 21147
SITRO-AIS 33            
1 59055U 24039E   24198.86186158  .00034508  00000+0  12003-2 0  9996
2 59055  97.3922 160.6972 0019832 111.2985 249.0375 15.29442869 21136
SITRO-AIS 35            
1 59056U 24039F   24198.85789565  .00033537  00000+0  11661-2 0  9997
2 59056  97.3920 160.6996 0019619 111.3702 248.9634 15.29464910 21139
SITRO-AIS 32            
1 59057U 24039G   24198.86650442  .00032761  00000+0  11442-2 0  9995
2 59057  97.3922 160.6900 0019705 111.5196 248.8147 15.29323337 21137
SITRO-AIS 34            
1 59058U 24039H   24198.86208564  .00033986  00000+0  11838-2 0  9999
2 59058  97.3922 160.6983 0019837 111.4920 248.8438 15.29400399 21136
SITRO-AIS 36            
1 59059U 24039J   24198.85233021  .00033204  00000+0  11522-2 0  9998
2 59059  97.3919 160.7073 0019407 111.5529 248.7782 15.29536138 21135
SITRO-AIS 49            
1 59060U 24039K   24198.85306878  .00033649  00000+0  11691-2 0  9991
2 59060  97.3921 160.7063 0019446 111.1099 249.2223 15.29492180 21134
SITRO-AIS 50            
1 59061U 24039L   24198.84169995  .00033655  00000+0  11632-2 0  9990
2 59061  97.3918 160.7202 0019345 111.3251 249.0056 15.29664377 21137
SITRO-AIS 51            
1 59062U 24039M   24198.84149253  .00034239  00000+0  11836-2 0  9991
2 59062  97.3920 160.7211 0019356 111.1316 249.1996 15.29654406 21139
SITRO-AIS 52            
1 59063U 24039N   24198.83387285  .00032827  00000+0  11316-2 0  9994
2 59063  97.3921 160.7325 0019284 111.0843 249.2462 15.29756276 21138
SITRO-AIS 25            
1 59066U 24039R   24198.82967640  .00004693  00000+0  44990-3 0  9990
2 59066  95.4019 117.4457 0168729 240.6902 117.7369 14.83219778 20502
SITRO-AIS 26            
1 59067U 24039S   24198.82982079  .00005062  00000+0  48548-3 0  9998
2 59067  95.4018 117.4449 0168671 240.7224 117.7047 14.83186444 20503
SITRO-AIS 27            
1 59068U 24039T   24198.81729754  .00004674  00000+0  44697-3 0  9996
2 59068  95.4020 117.4600 0168271 240.5675 117.8662 14.83360876 20507
SITRO-AIS 28            
1 59071U 24039U   24198.88137705  .00004931  00000+0  47109-3 0  9993
2 59071  95.4021 117.5102 0168101 240.3212 118.1182 14.83404317 20518
GRBBETA                 
1 60236U 24128B   24198.47600613  .00003651  00000+0  33364-3 0  9991
2 60236  61.9941 138.6664 0010056 280.4855  79.5100 14.96812284   992
OOV-CUBE                
1 60240U 24128F   24198.54506539  .00004264  00000+0  39171-3 0  9999
2 60240  61.9975 138.4528 0010207 262.4258  97.5670 14.96314964  1003
ROBUSTA 3A              
1 60243U 24128J   24198.48118811  .00009731  00000+0  88477-3 0  9994
2 60243  61.9915 138.6849 0012865 254.0026 105.9645 14.95680565   995
